start=new Date('2022-12-19T00:00:00.000Z').valueOf();
sats=[{"DECAY_DATE":null,"GP_ID":"220870319","OBJECT_NAME":"STARLINK-3145","PERIAPSIS":"537.576","ELEMENT_SET_NO":"999","CENTER_NAME":"EARTH","COUNTRY_CODE":"US","TLE_LINE2":"2 49455  53.2191 103.1089 0003179  64.5736 295.5585 15.08830369 61080","RA_OF_ASC_NODE":"103.1089","OBJECT_ID":"2021-104AZ","TIME_SYSTEM":"UTC","ARG_OF_PERICENTER":"64.5736","CLASSIFICATION_TYPE":"U","MEAN_MOTION_DDOT":"0.0000000000000","BSTAR":"-0.00004082200000","EPHEMERIS_TYPE":"0","SITE":"AFETR","SEMIMAJOR_AXIS":"6917.910","FILE":"3709623","RCS_SIZE":"LARGE","MEAN_MOTION_DOT":"-0.00000938","PERIOD":"95.438","EPOCH":"2022-12-18T15:23:44.188224","OBJECT_TYPE":"PAYLOAD","MEAN_ANOMALY":"295.5585","INCLINATION":"53.2191","APOAPSIS":"541.974","MEAN_MOTION":"15.08830369","REF_FRAME":"TEME","TLE_LINE1":"1 49455U 21104AZ  22352.64148366 -.00000938  00000-0 -40822-4 0  9999","NORAD_CAT_ID":"49455","LAUNCH_DATE":"2021-11-13","ECCENTRICITY":"0.00031790","MEAN_ELEMENT_THEORY":"SGP4","REV_AT_EPOCH":"6108"},{"GP_ID":"220871065","OBJECT_NAME":"STARLINK-3124","DECAY_DATE":null,"MEAN_MOTION_DDOT":"0.0000000000000","CLASSIFICATION_TYPE":"U","ARG_OF_PERICENTER":"61.2202","TIME_SYSTEM":"UTC","OBJECT_ID":"2021-104BA","RA_OF_ASC_NODE":"102.7691","COUNTRY_CODE":"US","TLE_LINE2":"2 49456  53.2150 102.7691 0002644  61.2202 298.9056 15.08846714 61090","ELEMENT_SET_NO":"999","PERIAPSIS":"537.896","CENTER_NAME":"EARTH","MEAN_ANOMALY":"298.9056","EPOCH":"2022-12-18T17:09:44.352288","OBJECT_TYPE":"PAYLOAD","PERIOD":"95.437","SEMIMAJOR_AXIS":"6917.860","FILE":"3709623","RCS_SIZE":"LARGE","MEAN_MOTION_DOT":"0.00006032","SITE":"AFETR","BSTAR":"0.00039669000000","EPHEMERIS_TYPE":"0","REV_AT_EPOCH":"6109","MEAN_ELEMENT_THEORY":"SGP4","NORAD_CAT_ID":"49456","LAUNCH_DATE":"2021-11-13","ECCENTRICITY":"0.00026440","TLE_LINE1":"1 49456U 21104BA  22352.71509667  .00006032  00000-0  39669-3 0  9998","REF_FRAME":"TEME","APOAPSIS":"541.554","MEAN_MOTION":"15.08846714","INCLINATION":"53.2150"},{"RA_OF_ASC_NODE":"102.8275","TLE_LINE2":"2 49457  53.2158 102.8275 0002323  39.4612 320.6549 15.08832644 61091","COUNTRY_CODE":"US","CENTER_NAME":"EARTH","ELEMENT_SET_NO":"999","PERIAPSIS":"538.161","MEAN_MOTION_DDOT":"0.0000000000000","CLASSIFICATION_TYPE":"U","ARG_OF_PERICENTER":"39.4612","TIME_SYSTEM":"UTC","OBJECT_ID":"2021-104BB","OBJECT_NAME":"STARLINK-3132","GP_ID":"220869817","DECAY_DATE":null,"TLE_LINE1":"1 49457U 21104BB  22352.70403936 -.00000091  00000-0  12382-4 0  9994","REF_FRAME":"TEME","MEAN_MOTION":"15.08832644","APOAPSIS":"541.375","INCLINATION":"53.2158","REV_AT_EPOCH":"6109","MEAN_ELEMENT_THEORY":"SGP4","LAUNCH_DATE":"2021-11-13","ECCENTRICITY":"0.00023230","NORAD_CAT_ID":"49457","MEAN_MOTION_DOT":"-0.00000091","FILE":"3709623","SEMIMAJOR_AXIS":"6917.903","RCS_SIZE":"LARGE","SITE":"AFETR","BSTAR":"0.00001238200000","EPHEMERIS_TYPE":"0","MEAN_ANOMALY":"320.6549","OBJECT_TYPE":"PAYLOAD","EPOCH":"2022-12-18T16:53:49.000704","PERIOD":"95.438"},{"MEAN_ELEMENT_THEORY":"SGP4","NORAD_CAT_ID":"49458","LAUNCH_DATE":"2021-11-13","ECCENTRICITY":"0.00026880","REV_AT_EPOCH":"6109","APOAPSIS":"541.632","MEAN_MOTION":"15.08831260","INCLINATION":"53.2155","TLE_LINE1":"1 49458U 21104BC  22352.71141114  .00000412  00000-0  43989-4 0  9996","REF_FRAME":"TEME","PERIOD":"95.438","MEAN_ANOMALY":"311.8416","OBJECT_TYPE":"PAYLOAD","EPOCH":"2022-12-18T17:04:25.922496","EPHEMERIS_TYPE":"0","BSTAR":"0.00004398900000","FILE":"3709623","RCS_SIZE":"LARGE","SEMIMAJOR_AXIS":"6917.907","MEAN_MOTION_DOT":"0.00000412","SITE":"AFETR","TIME_SYSTEM":"UTC","OBJECT_ID":"2021-104BC","MEAN_MOTION_DDOT":"0.0000000000000","CLASSIFICATION_TYPE":"U","ARG_OF_PERICENTER":"48.2805","COUNTRY_CODE":"US","TLE_LINE2":"2 49458  53.2155 102.7857 0002688  48.2805 311.8416 15.08831260 61098","PERIAPSIS":"537.913","ELEMENT_SET_NO":"999","CENTER_NAME":"EARTH","RA_OF_ASC_NODE":"102.7857","DECAY_DATE":null,"OBJECT_NAME":"STARLINK-3156","GP_ID":"220869568"},{"OBJECT_NAME":"STARLINK-3141","GP_ID":"220870819","DECAY_DATE":null,"CLASSIFICATION_TYPE":"U","MEAN_MOTION_DDOT":"0.0000000000000","ARG_OF_PERICENTER":"47.2145","TIME_SYSTEM":"UTC","OBJECT_ID":"2021-104BD","RA_OF_ASC_NODE":"102.8427","COUNTRY_CODE":"US","TLE_LINE2":"2 49459  53.2178 102.8427 0002671  47.2145 312.9072 15.08831136 61098","PERIAPSIS":"537.925","ELEMENT_SET_NO":"999","CENTER_NAME":"EARTH","MEAN_ANOMALY":"312.9072","EPOCH":"2022-12-18T16:48:31.833216","OBJECT_TYPE":"PAYLOAD","PERIOD":"95.438","FILE":"3709623","SEMIMAJOR_AXIS":"6917.907","RCS_SIZE":"LARGE","MEAN_MOTION_DOT":"0.00001081","SITE":"AFETR","BSTAR":"0.00008602900000","EPHEMERIS_TYPE":"0","REV_AT_EPOCH":"6109","MEAN_ELEMENT_THEORY":"SGP4","NORAD_CAT_ID":"49459","LAUNCH_DATE":"2021-11-13","ECCENTRICITY":"0.00026710","TLE_LINE1":"1 49459U 21104BD  22352.70036844  .00001081  00000-0  86029-4 0  9994","REF_FRAME":"TEME","APOAPSIS":"541.620","MEAN_MOTION":"15.08831136","INCLINATION":"53.2178"},{"APOAPSIS":"541.532","MEAN_MOTION":"15.08836791","INCLINATION":"53.2186","TLE_LINE1":"1 49460U 21104BE  22352.63044536 -.00000103  00000-0  11643-4 0  9990","REF_FRAME":"TEME","MEAN_ELEMENT_THEORY":"SGP4","NORAD_CAT_ID":"49460","ECCENTRICITY":"0.00025690","LAUNCH_DATE":"2021-11-13","REV_AT_EPOCH":"6107","BSTAR":"0.00001164300000","EPHEMERIS_TYPE":"0","RCS_SIZE":"LARGE","FILE":"3709623","SEMIMAJOR_AXIS":"6917.890","MEAN_MOTION_DOT":"-0.00000103","SITE":"AFETR","PERIOD":"95.438","MEAN_ANOMALY":"310.5737","OBJECT_TYPE":"PAYLOAD","EPOCH":"2022-12-18T15:07:50.479104","COUNTRY_CODE":"US","TLE_LINE2":"2 49460  53.2186 103.1596 0002569  49.5479 310.5737 15.08836791 61073","PERIAPSIS":"537.978","ELEMENT_SET_NO":"999","CENTER_NAME":"EARTH","RA_OF_ASC_NODE":"103.1596","TIME_SYSTEM":"UTC","OBJECT_ID":"2021-104BE","MEAN_MOTION_DDOT":"0.0000000000000","CLASSIFICATION_TYPE":"U","ARG_OF_PERICENTER":"49.5479","DECAY_DATE":null,"GP_ID":"220870567","OBJECT_NAME":"STARLINK-3140"},{"PERIOD":"95.439","EPOCH":"2022-12-18T19:27:33.940800","OBJECT_TYPE":"PAYLOAD","MEAN_ANOMALY":"330.4146","BSTAR":"-0.00012140000000","EPHEMERIS_TYPE":"0","SITE":"AFETR","MEAN_MOTION_DOT":"-0.00002219","FILE":"3709623","SEMIMAJOR_AXIS":"6917.928","RCS_SIZE":"LARGE","LAUNCH_DATE":"2021-12-02","ECCENTRICITY":"0.00025800","NORAD_CAT_ID":"49724","MEAN_ELEMENT_THEORY":"SGP4","REV_AT_EPOCH":"5786","INCLINATION":"53.2181","MEAN_MOTION":"15.08824338","APOAPSIS":"541.578","REF_FRAME":"TEME","TLE_LINE1":"1 49724U 21115A   22352.81080950 -.00002219  00000-0 -12140-3 0  9998","DECAY_DATE":null,"OBJECT_NAME":"STARLINK-3219","GP_ID":"220871078","OBJECT_ID":"2021-115A","TIME_SYSTEM":"UTC","ARG_OF_PERICENTER":"29.6992","MEAN_MOTION_DDOT":"0.0000000000000","CLASSIFICATION_TYPE":"U","CENTER_NAME":"EARTH","PERIAPSIS":"538.008","ELEMENT_SET_NO":"999","TLE_LINE2":"2 49724  53.2181  32.3414 0002580  29.6992 330.4146 15.08824338 57866","COUNTRY_CODE":"US","RA_OF_ASC_NODE":"32.3414"},{"RA_OF_ASC_NODE":"33.6889","CENTER_NAME":"EARTH","ELEMENT_SET_NO":"999","PERIAPSIS":"538.079","TLE_LINE2":"2 49725  53.2180  33.6889 0002458  29.7071 330.4060 15.08828967 57822","COUNTRY_CODE":"US","ARG_OF_PERICENTER":"29.7071","MEAN_MOTION_DDOT":"0.0000000000000","CLASSIFICATION_TYPE":"U","OBJECT_ID":"2021-115B","TIME_SYSTEM":"UTC","GP_ID":"220827275","OBJECT_NAME":"STARLINK-3218","DECAY_DATE":null,"REF_FRAME":"TEME","TLE_LINE1":"1 49725U 21115B   22352.51272376  .00000898  00000-0  74522-4 0  9993","INCLINATION":"53.2180","MEAN_MOTION":"15.08828967","APOAPSIS":"541.480","REV_AT_EPOCH":"5782","ECCENTRICITY":"0.00024580","LAUNCH_DATE":"2021-12-02","NORAD_CAT_ID":"49725","MEAN_ELEMENT_THEORY":"SGP4","SITE":"AFETR","MEAN_MOTION_DOT":"0.00000898","FILE":"3708942","SEMIMAJOR_AXIS":"6917.914","RCS_SIZE":"LARGE","BSTAR":"0.00007452200000","EPHEMERIS_TYPE":"0","OBJECT_TYPE":"PAYLOAD","EPOCH":"2022-12-18T12:18:19.332864","MEAN_ANOMALY":"330.4060","PERIOD":"95.438"},{"TIME_SYSTEM":"UTC","OBJECT_ID":"2021-115C","MEAN_MOTION_DDOT":"0.0000000000000","CLASSIFICATION_TYPE":"U","ARG_OF_PERICENTER":"33.1288","COUNTRY_CODE":"US","TLE_LINE2":"2 49726  53.2157  42.0748 0002466  33.1288 326.9858 15.08838084 57739","ELEMENT_SET_NO":"999","PERIAPSIS":"538.045","CENTER_NAME":"EARTH","RA_OF_ASC_NODE":"42.0748","DECAY_DATE":null,"GP_ID":"220869581","OBJECT_NAME":"STARLINK-3237","MEAN_ELEMENT_THEORY":"SGP4","NORAD_CAT_ID":"49726","LAUNCH_DATE":"2021-12-02","ECCENTRICITY":"0.00024660","REV_AT_EPOCH":"5773","APOAPSIS":"541.457","MEAN_MOTION":"15.08838084","INCLINATION":"53.2157","TLE_LINE1":"1 49726U 21115C   22352.87148155  .00000517  00000-0  50579-4 0  9994","REF_FRAME":"TEME","PERIOD":"95.438","MEAN_ANOMALY":"326.9858","OBJECT_TYPE":"PAYLOAD","EPOCH":"2022-12-18T20:54:56.005920","BSTAR":"0.00005057900000","EPHEMERIS_TYPE":"0","FILE":"3709623","RCS_SIZE":"LARGE","SEMIMAJOR_AXIS":"6917.886","MEAN_MOTION_DOT":"0.00000517","SITE":"AFETR"},{"COUNTRY_CODE":"US","TLE_LINE2":"2 49727  53.2174  42.0573 0002617  29.9486 330.1655 15.08851196 57737","ELEMENT_SET_NO":"999","PERIAPSIS":"537.901","CENTER_NAME":"EARTH","RA_OF_ASC_NODE":"42.0573","TIME_SYSTEM":"UTC","OBJECT_ID":"2021-115D","MEAN_MOTION_DDOT":"0.0000000000000","CLASSIFICATION_TYPE":"U","ARG_OF_PERICENTER":"29.9486","DECAY_DATE":null,"OBJECT_NAME":"STARLINK-3242","GP_ID":"220870832","APOAPSIS":"541.522","MEAN_MOTION":"15.08851196","INCLINATION":"53.2174","TLE_LINE1":"1 49727U 21115D   22352.87514935  .00001889  00000-0  13672-3 0  9993","REF_FRAME":"TEME","MEAN_ELEMENT_THEORY":"SGP4","NORAD_CAT_ID":"49727","ECCENTRICITY":"0.00026170","LAUNCH_DATE":"2021-12-02","REV_AT_EPOCH":"5773","BSTAR":"0.00013672000000","EPHEMERIS_TYPE":"0","SEMIMAJOR_AXIS":"6917.846","FILE":"3709623","RCS_SIZE":"LARGE","MEAN_MOTION_DOT":"0.00001889","SITE":"AFETR","PERIOD":"95.437","MEAN_ANOMALY":"330.1655","EPOCH":"2022-12-18T21:00:12.903840","OBJECT_TYPE":"PAYLOAD"}];
